ONEWEB-0029             
1 45445U 20020X   24329.84566279  .00001923  00000+0  53893-2 0  9997
2 45445  87.8877 134.4977 0001644  87.7434 272.3882 13.11430030228035
ONEWEB-0068             
1 45446U 20020Y   24329.97362519 -.00000011  00000+0 -65857-4 0  9997
2 45446  87.8885 134.4589 0001642  87.9197 272.2118 13.11419411228008
ONEWEB-0046             
1 45447U 20020Z   24329.43701950  .00000095  00000+0  23240-3 0  9994
2 45447  87.8884 134.5777 0001771  98.8714 261.2615 13.11419227227933
ONEWEB-0063             
1 45448U 20020AA  24329.99993369  .00000453  00000+0  12427-2 0  9995
2 45448  87.8881 134.4654 0001592 100.6544 259.4763 13.11415455228098
ONEWEB-0019             
1 45449U 20020AB  24329.97449442  .00000140  00000+0  35888-3 0  9992
2 45449  87.8886 134.4800 0001331  88.9444 271.1837 13.11418089227947
ONEWEB-0094             
1 45450U 20020AC  24329.98781079  .00000018  00000+0  14148-4 0  9991
2 45450  87.9079 119.2292 0001648  92.5238 267.6083 13.17648711231359
ONEWEB-0087             
1 45451U 20020AD  24330.00995041  .00000176  00000+0  46213-3 0  9995
2 45451  87.8876 134.4280 0001765  85.1293 275.0037 13.11413490227994
ONEWEB-0082             
1 45452U 20020AE  24330.00669459  .00000366  00000+0  99656-3 0  9997
2 45452  87.8878 134.4391 0001490  83.3489 276.7808 13.11421258228088
ONEWEB-0050             
1 45453U 20020AF  24330.08452617  .00005234  00000+0  50885-3 0  9992
2 45453  88.0029 347.3580 0002274 152.1631 207.9721 14.92422067255595
ONEWEB-0034             
1 45454U 20020AG  24328.88428209 -.00000484  00000+0 -14028-2 0  9990
2 45454  87.8881 134.6820 0001534  92.0095 268.1208 13.11416578227843
ONEWEB-0060             
1 45455U 20020AH  24329.84236635  .00000579  00000+0  15984-2 0  9993
2 45455  87.8884 134.5121 0001538  96.3218 263.8085 13.11418299227935
ONEWEB-0086             
1 45456U 20020AJ  24329.44379930  .00000419  00000+0  11467-2 0  9991
2 45456  87.8882 134.5705 0001868  85.5443 274.5898 13.11419044227938
ONEWEB-0088             
1 45457U 20020AK  24329.42174390 -.00000427  00000+0 -12407-2 0  9999
2 45457  87.8880 134.5345 0001589  94.4593 265.6717 13.11419240227863
ONEWEB-0102             
1 47258U 20100A   24329.33820656 -.00000319  00000+0 -92112-3 0  9994
2 47258  87.8866 104.1615 0001396 100.0018 260.1268 13.12442035189983
ONEWEB-0109             
1 47259U 20100B   24329.80373486 -.00000174  00000+0 -51962-3 0  9998
2 47259  87.8867 104.0347 0001401  98.7606 261.3681 13.12444518189877
ONEWEB-0110             
1 47260U 20100C   24328.91484942  .00000505  00000+0  13692-2 0  9994
2 47260  87.8860 104.2081 0001448  92.1920 267.9375 13.12440332189925
ONEWEB-0111             
1 47261U 20100D   24329.93673407 -.00000312  00000+0 -90179-3 0  9998
2 47261  87.8872 104.0081 0001540 105.4598 254.6700 13.12439897189894
ONEWEB-0114             
1 47262U 20100E   24329.81509049  .00000047  00000+0  94602-4 0  9995
2 47262  87.8861 104.0413 0001250 108.1152 252.0113 13.12443906189836
ONEWEB-0117             
1 47263U 20100F   24329.80698809 -.00000168  00000+0 -50110-3 0  9999
2 47263  87.8867 104.0254 0001555  98.8988 261.2316 13.12441913189840
ONEWEB-0118             
1 47264U 20100G   24329.76319220  .00000401  00000+0  10787-2 0  9995
2 47264  87.8865 104.0366 0001513 114.1808 245.9478 13.12441843190033
ONEWEB-0119             
1 47265U 20100H   24329.94324321 -.00000387  00000+0 -11108-2 0  9997
2 47265  87.8868 104.0400 0001496  96.7892 263.3407 13.12440662190038
ONEWEB-0120             
1 47266U 20100J   24329.81361589  .00000138  00000+0  34816-3 0  9995
2 47266  87.8866 104.0568 0001329 102.8465 257.2812 13.12442111190046
ONEWEB-0121             
1 47267U 20100K   24329.34470008 -.00000106  00000+0 -33114-3 0  9998
2 47267  87.8860 104.1331 0001575  89.6092 270.5216 13.12441381189896
ONEWEB-0122             
1 47268U 20100L   24329.79709209 -.00000319  00000+0 -92331-3 0  9998
2 47268  87.8864 104.0484 0001423  96.4561 263.6730 13.12440065189867
ONEWEB-0123             
1 47269U 20100M   24329.94487576 -.00000552  00000+0 -15691-2 0  9998
2 47269  87.8866 104.0357 0001983  90.7001 269.4355 13.12438639190027
ONEWEB-0124             
1 47270U 20100N   24329.32359834 -.00000215  00000+0 -63342-3 0  9990
2 47270  87.8865 104.1590 0001692  92.7637 267.3685 13.12441333189826
ONEWEB-0125             
1 47271U 20100P   24329.83456901  .00000534  00000+0  14498-2 0  9999
2 47271  87.8868 104.0181 0001818 103.5900 256.5431 13.12442669189955
ONEWEB-0126             
1 47272U 20100Q   24329.78344849 -.00000268  00000+0 -78110-3 0  9999
2 47272  87.8861 104.0273 0001429 104.3977 255.7310 13.12439472190016
ONEWEB-0127             
1 47273U 20100R   24329.82158473  .00000392  00000+0  10531-2 0  9999
2 47273  87.8864 104.0540 0001360  98.4352 261.6931 13.12444234190041
ONEWEB-0128             
1 47274U 20100S   24329.84429963  .00000820  00000+0  22428-2 0  9991
2 47274  87.8871 104.0637 0001412  91.0154 269.1136 13.12438382190063
ONEWEB-0129             
1 47275U 20100T   24329.82321075  .00000457  00000+0  12353-2 0  9997
2 47275  87.8865 104.0239 0000689 157.8746 202.2412 13.12443698189999
ONEWEB-0130             
1 47276U 20100U   24329.31710833 -.00000035  00000+0 -13197-3 0  9998
2 47276  87.8865 104.1300 0001386  94.7048 265.4238 13.12439484189893
ONEWEB-0131             
1 47277U 20100V   24329.77129139  .00000162  00000+0  41479-3 0  9995
2 47277  87.8868 104.0590 0001497  94.2854 265.8445 13.12439267189994
ONEWEB-0132             
1 47278U 20100W   24329.95294882 -.00000805  00000+0 -22733-2 0  9991
2 47278  87.8868 104.0246 0001739  94.9698 265.1629 13.12442823189916
ONEWEB-0133             
1 47279U 20100X   24329.81671768  .00000264  00000+0  69736-3 0  9991
2 47279  87.8860 104.0407 0001491  92.7716 267.3583 13.12444500190054
ONEWEB-0134             
1 47280U 20100Y   24329.93836144 -.00000280  00000+0 -81447-3 0  9990
2 47280  87.8859 104.0031 0001273  89.8787 270.2488 13.12444234190040
ONEWEB-0135             
1 47281U 20100Z   24328.91808132  .00000491  00000+0  13284-2 0  9999
2 47281  87.8866 104.2316 0001329  78.3702 281.7575 13.12444532189930
ONEWEB-0136             
1 47282U 20100AA  24329.31873479 -.00000095  00000+0 -29840-3 0  9999
2 47282  87.8864 104.1191 0001051  87.6597 272.4652 13.12443539189913
ONEWEB-0137             
1 47283U 20100AB  24329.81022757  .00000907  00000+0  24844-2 0  9998
2 47283  87.8862 104.0376 0001359 100.4973 259.6309 13.12441193189885
ONEWEB-0138             
1 47284U 20100AC  24329.94159829 -.00000723  00000+0 -20465-2 0  9997
2 47284  87.8859 104.0244 0001418  95.3524 264.7766 13.12441912189980
ONEWEB-0139             
1 47285U 20100AD  24328.91335608  .00000474  00000+0  12831-2 0  9994
2 47285  87.8866 104.2076 0001474  98.8229 261.3067 13.12444787189920
ONEWEB-0140             
1 47286U 20100AE  24329.78266372 -.00000115  00000+0 -35509-3 0  9994
2 47286  87.8852 104.0303 0001344  98.8309 261.2971 13.12442130190006
ONEWEB-0141             
1 47287U 20100AF  24328.91309038  .00000428  00000+0  11537-2 0  9995
2 47287  87.8862 104.2195 0001595 102.7329 257.3978 13.12441156189877
ONEWEB-0142             
1 47288U 20100AG  24329.33902109 -.00000268  00000+0 -77963-3 0  9991
2 47288  87.8866 104.1159 0001370 107.6547 252.4732 13.12444591189924
ONEWEB-0143             
1 47289U 20100AH  24328.91160806  .00000508  00000+0  13777-2 0  9992
2 47289  87.8863 104.2226 0001483  97.5000 262.6297 13.12443548189845
ONEWEB-0144             
1 47290U 20100AJ  24329.79887917 -.00000309  00000+0 -89368-3 0  9991
2 47290  87.8865 104.0290 0001200 104.4769 255.6492 13.12441597189880
ONEWEB-0145             
1 47291U 20100AK  24329.76966890  .00000238  00000+0  62648-3 0  9998
2 47291  87.8868 104.0593 0001328  96.0982 264.0298 13.12439904190074
ONEWEB-0146             
1 47292U 20100AL  24329.76643002  .00000256  00000+0  67568-3 0  9992
2 47292  87.8865 104.0448 0001873  91.3409 268.7934 13.12439821189982
ONEWEB-0147             
1 47293U 20100AM  24329.35118769  .00000084  00000+0  19775-3 0  9991
2 47293  87.8862 104.1155 0001317  90.0040 270.1239 13.12442025189824
ONEWEB-0115             
1 48042U 21025A   24329.29083086  .00000457  00000+0  12153-2 0  9993
2 48042  87.8922  73.5799 0001697 101.9979 258.1340 13.13471922178782
ONEWEB-0152             
1 48043U 21025B   24329.68440164  .00000173  00000+0  43943-3 0  9998
2 48043  87.8928  73.5052 0001592  98.3236 261.8073 13.13469400178793
ONEWEB-0153             
1 48044U 21025C   24329.28129383  .00000369  00000+0  97470-3 0  9993
2 48044  87.8929  73.5774 0001596 104.2810 255.8497 13.13471527178735
ONEWEB-0154             
1 48045U 21025D   24329.81135605  .00000221  00000+0  57077-3 0  9993
2 48045  87.8928  73.4778 0001575  99.0836 261.0471 13.13474510178763
ONEWEB-0116             
1 48046U 21025E   24329.24318965 -.00000193  00000+0 -56285-3 0  9993
2 48046  87.8927  73.5652 0001685  96.9016 263.2304 13.13469930178830
ONEWEB-0150             
1 48047U 21025F   24329.67487660  .00000372  00000+0  98364-3 0  9991
2 48047  87.8922  73.4890 0001645 108.5480 251.5828 13.13469713178784
ONEWEB-0107             
1 48048U 21025G   24329.67644525  .00000342  00000+0  90209-3 0  9994
2 48048  87.8924  73.4865 0001319 113.3857 246.7411 13.13473964178764
ONEWEB-0101             
1 48049U 21025H   24329.86848930 -.00000218  00000+0 -63319-3 0  9998
2 48049  87.8928  73.4742 0001517 102.9153 257.2145 13.13470178178761
ONEWEB-0113             
1 48050U 21025J   24329.69390755 -.00000121  00000+0 -36644-3 0  9992
2 48050  87.8931  73.4897 0001694  99.4215 260.7106 13.13473693178821
ONEWEB-0112             
1 48051U 21025K   24329.68123258  .00000261  00000+0  67957-3 0  9998
2 48051  87.8924  73.4829 0001658 104.0014 256.1300 13.13469068178836
